QZS-1R                  
1 49336U 21096A   23350.17559359 -.00000234  00000+0  00000+0 0  9998
2 49336  35.5682  93.3445 0754392 271.1142 277.2261  1.00256797  7834
